NORAD_CAT_ID,OBJECT_NAME,OBJECT_TYPE,EPOCH,MEAN_MOTION,ECCENTRICITY,INCLINATION,RA_OF_ASC_NODE,ARG_OF_PERICENTER,MEAN_ANOMALY,BSTAR,MEAN_MOTION_DOT,MEAN_MOTION_DDOT,TLE_LINE0,TLE_LINE1,TLE_LINE2,SEMIMAJOR_AXIS,PERIOD,APOGEE,PERIGEE,DECAYED
51896.0,STARLINK-3593,PAYLOAD,2022-05-04 12:00:00,15.7301371,0.0003388,53.2169,197.8139,9.5658,160.4034,-0.0021753,-0.00293312,0.0,0 STARLINK-3593,1 51896U 22022AW  22124.50001157 -.00293312  00000-0 -21753-2 0  9999,2 51896  53.2169 197.8139 0003388   9.5658 160.4034 15.73013710 11019,6728.426,91.544,352.571,348.01199999999994,0.0
51896.0,STARLINK-3593,PAYLOAD,2022-05-04 14:00:01,15.73137441,0.0003355,53.2175,197.4009,6.2632,275.8203,-0.0049285,-0.00640761,0.0,0 STARLINK-3593,1 51896U 22022AW  22124.58334491 -.00640761  00000-0 -49285-2 0  9991,2 51896  53.2175 197.4009 0003355   6.2632 275.8203 15.73137441  3702,6728.074000000001,91.537,352.196,347.681,0.0
51896.0,STARLINK-3593,PAYLOAD,2022-05-04 20:00:01,15.72810899,0.0003214,53.2174,196.1618,8.7744,249.8635,-0.0056961,-0.00723042,0.0,0 STARLINK-3593,1 51896U 22022AW  22124.83335648 -.00723042  00000-0 -56961-2 0  9997,2 51896  53.2174 196.1618 0003214   8.7744 249.8635 15.72810899 11060,6729.005,91.556,353.032,348.707,0.0
51896.0,STARLINK-3593,PAYLOAD,2022-05-04 22:00:01,15.72681579,0.0003182,53.2176,195.7497,6.2554,4.4772,-0.0056986999999999,-0.00719645,0.0,0 STARLINK-3593,1 51896U 22022AW  22124.91668981 -.00719645  00000-0 -56987-2 0  9997,2 51896  53.2176 195.7497 0003182   6.2554   4.4772 15.72681579  3708,6729.374,91.563,353.38,349.097,0.0
51896.0,STARLINK-3593,PAYLOAD,2022-05-05 14:00:01,15.71659418,0.0003703,53.2175,192.461,1.5115,184.5266,-0.0059142,-0.00715458,0.0,0 STARLINK-3593,1 51896U 22022AW  22125.58334491 -.00715458  00000-0 -59142-2 0  9991,2 51896  53.2175 192.4610 0003703   1.5115 184.5266 15.71659418  3713,6732.291,91.623,356.649,351.663,0.0
51896.0,STARLINK-3593,PAYLOAD,2022-05-05 22:00:00,15.71147592,0.0003562,53.2175,190.8164,322.737,310.0684,-0.0059977,-0.00710354,0.0,0 STARLINK-3593,1 51896U 22022AW  22125.91667824 -.00710354  00000-0 -59977-2 0  9993,2 51896  53.2175 190.8164 0003562 322.7370 310.0684 15.71147592  3673,6733.753000000002,91.653,358.017,353.219,0.0
51896.0,STARLINK-3593,PAYLOAD,2022-05-06 08:00:01,15.70510497,0.0005886,53.217,188.7651,293.5596,176.843,-0.0062064999999999,-0.00715965,0.0,0 STARLINK-3593,1 51896U 22022AW  22126.33334491 -.00715965  00000-0 -62065-2 0  9996,2 51896  53.2170 188.7651 0005886 293.5596 176.8430 15.70510497 11292,6735.574000000001,91.69,361.404,353.474,0.0
51896.0,STARLINK-3593,PAYLOAD,2022-05-06 14:00:01,15.70137603,0.0005554,53.2176,187.5348,308.9296,135.5671,-0.0064408,-0.00730054,0.0,0 STARLINK-3593,1 51896U 22022AW  22126.58334491 -.00730054  00000-0 -64408-2 0  9992,2 51896  53.2176 187.5348 0005554 308.9296 135.5671 15.70137603  3708,6736.64,91.712,362.247,354.764,0.0
51896.0,STARLINK-3593,PAYLOAD,2022-05-07 06:00:02,15.69108826,0.0001404,53.2178,184.2551,25.3208,228.489,-0.0065676,-0.00713229,0.0,0 STARLINK-3593,1 51896U 22022AW  22127.25002315 -.00713229  00000-0 -65676-2 0  9997,2 51896  53.2178 184.2551 0001404  25.3208 228.4890 15.69108826 11441,6739.585,91.772,362.396,360.503,0.0
51896.0,STARLINK-3593,PAYLOAD,2022-05-07 14:00:01,15.68600214,0.0001262,53.2174,182.6199,52.1287,285.3166,-0.0067316999999999,-0.00715553,0.0,0 STARLINK-3593,1 51896U 22022AW  22127.58334491 -.00715553  00000-0 -67317-2 0  9992,2 51896  53.2174 182.6199 0001262  52.1287 285.3166 15.68600214  3709,6741.041,91.802,363.757,362.056,0.0
51896.0,STARLINK-3593,PAYLOAD,2022-05-07 22:00:00,15.68090334,0.000116,53.2174,180.9821,53.6034,6.9329,-0.0068735,-0.00715394,0.0,0 STARLINK-3593,1 51896U 22022AW  22127.91667824 -.00715394  00000-0 -68735-2 0  9996,2 51896  53.2174 180.9821 0001160  53.6034   6.9329 15.68090334  3709,6742.503000000002,91.831,365.15,363.585,0.0
51896.0,STARLINK-3593,PAYLOAD,2022-05-08 06:00:00,15.675808600000002,0.0001409999999999,53.2175,179.3476,50.7209,92.2921,-0.0070259,-0.00716093,0.0,0 STARLINK-3593,1 51896U 22022AW  22128.25001157 -.00716093  00000-0 -70259-2 0  9996,2 51896  53.2175 179.3476 0001410  50.7209  92.2921 15.67580860 11597,6743.9630000000025,91.861,366.779,364.878,0.0
51896.0,STARLINK-3593,PAYLOAD,2022-05-08 14:00:01,15.67067307,0.0001298,53.2175,177.7159,60.5738,164.3036,-0.0071077,-0.00709878,0.0,0 STARLINK-3593,1 51896U 22022AW  22128.58334491 -.00709878  00000-0 -71077-2 0  9994,2 51896  53.2175 177.7159 0001298  60.5738 164.3036 15.67067307  3705,6745.437,91.891,368.177,366.426,0.0
51896.0,STARLINK-3593,PAYLOAD,2022-05-08 22:00:00,15.66561207,0.0001169,53.2177,176.0818,60.06399999999999,246.0648,-0.007329,-0.00716434,0.0,0 STARLINK-3593,1 51896U 22022AW  22128.91667824 -.00716434  00000-0 -73290-2 0  9995,2 51896  53.2177 176.0818 0001169  60.0640 246.0648 15.66561207  3709,6746.889,91.921,369.543,367.966,0.0
51896.0,STARLINK-3593,PAYLOAD,2022-05-09 06:00:00,15.66053236,0.0001238,53.2178,174.4515,49.9413,336.8251,-0.0075183,-0.00719675,0.0,0 STARLINK-3593,1 51896U 22022AW  22129.25001157 -.00719675  00000-0 -75183-2 0  9997,2 51896  53.2178 174.4515 0001238  49.9413 336.8251 15.66053236 11757,6748.348000000001,91.951,371.049,369.378,0.0
51896.0,STARLINK-3593,PAYLOAD,2022-05-09 14:00:01,15.65537658,0.0001249,53.2173,172.8231,55.4875,51.3711,-0.0075646999999999,-0.00710038,0.0,0 STARLINK-3593,1 51896U 22022AW  22129.58335648 -.00710038  00000-0 -75647-2 0  9997,2 51896  53.2173 172.8231 0001249  55.4875  51.3711 15.65537658  3716,6749.83,91.981,372.538,370.852,0.0
51896.0,STARLINK-3593,PAYLOAD,2022-05-09 22:00:00,15.65029832,0.0001384,53.2174,171.1927,51.5987,134.6081,-0.0077586,-0.00713262,0.0,0 STARLINK-3593,1 51896U 22022AW  22129.91667824 -.00713262  00000-0 -77586-2 0  9994,2 51896  53.2174 171.1927 0001384  51.5987 134.6081 15.65029832  3706,6751.29,92.011,374.089,372.221,0.0
51896.0,STARLINK-3593,PAYLOAD,2022-05-10 14:00:01,15.64010097,0.0001095999999999,53.2173,167.9417,64.893,278.3001,-0.0080796,-0.00713071,0.0,0 STARLINK-3593,1 51896U 22022AW  22130.58334491 -.00713071  00000-0 -80796-2 0  9995,2 51896  53.2173 167.9417 0001096  64.8930 278.3001 15.64010097 11964,6754.224,92.071,376.829,375.349,0.0
51896.0,STARLINK-3593,PAYLOAD,2022-05-10 18:00:00,15.63753041,0.0001418,53.2169,167.1273,50.892,151.1673,-0.0081383,-0.00711186,0.0,0 STARLINK-3593,1 51896U 22022AW  22130.75001157 -.00711186  00000-0 -81383-2 0  9992,2 51896  53.2169 167.1273 0001418  50.8920 151.1673 15.63753041  3688,6754.964,92.086,377.787,375.872,0.0
51896.0,STARLINK-3593,PAYLOAD,2022-05-11 22:00:00,15.61969773,0.0001335,53.2176,161.4481,49.03,240.787,-0.0087481,-0.00712466,0.0,0 STARLINK-3593,1 51896U 22022AW  22131.91667824 -.00712466  00000-0 -87481-2 0  9997,2 51896  53.2176 161.4481 0001335  49.0300 240.7870 15.61969773 12171,6760.105,92.191,382.872,381.067,0.0
51896.0,STARLINK-3593,PAYLOAD,2022-05-12 14:00:01,15.60951163,0.0001491,53.2171,158.2118,38.3424,41.1069,-0.009123,-0.00713993,0.0,0 STARLINK-3593,1 51896U 22022AW  22132.58334491 -.00713993  00000-0 -91230-2 0  9995,2 51896  53.2171 158.2118 0001491  38.3424  41.1069 15.60951163  1307,6763.045,92.251,385.919,383.902,0.0
51896.0,STARLINK-3593,PAYLOAD,2022-05-12 20:00:01,15.60568174,0.0001408,53.2175,156.9972,39.0685,5.8632,-0.009257,-0.00713811,0.0,0 STARLINK-3593,1 51896U 22022AW  22132.83334491 -.00713811  00000-0 -92570-2 0  9990,2 51896  53.2175 156.9972 0001408  39.0685   5.8632 15.60568174 12311,6764.151999999999,92.274,386.969,385.064,0.0
51896.0,STARLINK-3593,PAYLOAD,2022-05-12 22:00:00,15.60440187,0.0001564,53.2172,156.5926,42.609,110.74,-0.0092858,-0.00712636,0.0,0 STARLINK-3593,1 51896U 22022AW  22132.91667824 -.00712636  00000-0 -92858-2 0  9991,2 51896  53.2172 156.5926 0001564  42.6090 110.7400 15.60440187  1305,6764.522,92.282,387.445,385.329,0.0
51896.0,STARLINK-3593,PAYLOAD,2022-05-13 14:00:01,15.59422195,0.0001192,53.2173,153.3636,62.4368,236.8678,-0.0096914,-0.00714916,0.0,0 STARLINK-3593,1 51896U 22022AW  22133.58334491 -.00714916  00000-0 -96914-2 0  9996,2 51896  53.2173 153.3636 0001192  62.4368 236.8678 15.59422195  1308,6767.465,92.342,390.137,388.524,0.0
51896.0,STARLINK-3593,PAYLOAD,2022-05-13 22:00:00,15.5890987,0.0001085,53.2174,151.7481,63.5543,307.8122,-0.0098435,-0.00712266,0.0,0 STARLINK-3593,1 51896U 22022AW  22133.91667824 -.00712266  00000-0 -98435-2 0  9998,2 51896  53.2174 151.7481 0001085  63.5543 307.8122 15.58909870 12480,6768.948,92.372,391.547,390.078,0.0
51896.0,STARLINK-3593,PAYLOAD,2022-05-14 14:00:01,15.57892097,0.0001431999999999,53.2173,148.5264,51.2371,102.4083,-0.010278,-0.00715287,0.0,0 STARLINK-3593,1 51896U 22022AW  22134.58334491 -.00715287  00000-0 -10278-1 0  9997,2 51896  53.2173 148.5264 0001432  51.2371 102.4083 15.57892097  1306,6771.896,92.433,394.73,392.791,0.0
51896.0,STARLINK-3593,PAYLOAD,2022-05-14 22:00:00,15.57381057,0.0001506,53.2173,146.9146,47.8373,176.0309,-0.010448,-0.00713401,0.0,0 STARLINK-3593,1 51896U 22022AW  22134.91667824 -.00713401  00000-0 -10448-1 0  9998,2 51896  53.2173 146.9146 0001506  47.8373 176.0309 15.57381057 12648,6773.377,92.463,396.262,394.222,0.0
51896.0,STARLINK-3593,PAYLOAD,2022-05-15 14:00:01,15.56362459,0.0001299,53.2172,143.7005,47.5935,314.9418,-0.010878,-0.00714728,0.0,0 STARLINK-3593,1 51896U 22022AW  22135.58335648 -.00714728  00000-0 -10878-1 0  9998,2 51896  53.2172 143.7005 0001299  47.5935 314.9418 15.56362459  1305,6776.331999999999,92.523,399.077,397.317,0.0
51896.0,STARLINK-3593,PAYLOAD,2022-05-15 22:00:00,15.558509099999998,0.000139,53.2172,142.0925,43.0794,27.776,-0.011068,-0.00713581,0.0,0 STARLINK-3593,1 51896U 22022AW  22135.91667824 -.00713581  00000-0 -11068-1 0  9997,2 51896  53.2172 142.0925 0001390  43.0794  27.7760 15.55850910 12791,6777.816999999999,92.554,400.624,398.74,0.0
